STARLINK-3692           
1 51958U 22025C   26068.17329645 -.00000339  00000+0  66883-6 0  9990
2 51958  53.1631  15.9414 0001402  86.2996 273.8165 15.30182510221092
2025-313BC              
1 67298U 25313BC  26068.18968176  .00075331  00000+0  26410-2 0  9997
2 67298  97.3985 144.8110 0008478 328.9209  31.1528 15.29126358  7890
